0 SL-12 DEB
1 29463U 89039DH  13283.35533234 -.00000007  00000-0  10000-3 0  2904
2 29463 067.2987 048.9221 2807392 353.9340 003.9882 06.99308038166187
